STARLINK-31047          
1 58783U 24011U   25349.83153130  .00001252  00000+0  54402-4 0  9994
2 58783  53.1613  27.6426 0001348 104.6515 255.4635 15.30192728107654
STARLINK-31039          
1 58784U 24011V   25349.85589522  .00001718  00000+0  70125-4 0  9992
2 58784  53.1608  43.1607 0001084  91.6296 268.4829 15.30202145107431
STARLINK-31034          
1 58785U 24011W   25349.58281526 -.00002299  00000+0 -65513-4 0  9998
2 58785  53.1627 301.9777 0001231  98.4562 261.6578 15.30206780108853
STARLINK-31024          
1 58786U 24011X   25349.86065156  .00000519  00000+0  29658-4 0  9990
2 58786  53.1623  41.0818 0001309  98.9387 261.1762 15.30194211107465
STARLINK-31189          
1 58787U 24012A   25349.23273930 -.00002470  00000+0 -80270-4 0  9991
2 58787  43.0014 281.8576 0001022 246.6939 113.3805 15.27579263108322
STARLINK-31185          
1 58788U 24012B   25349.87774783  .00000449  00000+0  25847-4 0  9995
2 58788  43.0010 278.9500 0001084 285.8928  74.1804 15.27580651108410
STARLINK-31166          
1 58789U 24012C   25349.51098181 -.00000866  00000+0 -21954-4 0  9998
2 58789  43.0007 280.4951 0000941 267.9577  92.1167 15.27584319108368
STARLINK-31187          
1 58790U 24012D   25349.87646989  .00005817  00000+0  22075-3 0  9997
2 58790  43.0025 278.9416 0001344 288.0217  72.0488 15.27578685108419
STARLINK-31162          
1 58791U 24012E   25349.24815597 -.00001774  00000+0 -54966-4 0  9997
2 58791  43.0015 281.9725 0001336 258.8968 101.1733 15.27583458108326
STARLINK-31184          
1 58793U 24012G   25349.24301568 -.00002813  00000+0 -92741-4 0  9995
2 58793  43.0014 281.9275 0001054 261.0797  98.9936 15.27581124108326
STARLINK-31192          
1 58794U 24012H   25349.87389722  .00010140  00000+0  37798-3 0  9993
2 58794  43.0016 278.9194 0000723 264.7499  95.3270 15.27537498108413
STARLINK-31161          
1 58795U 24012J   25349.50712637 -.00001599  00000+0 -48594-4 0  9996
2 58795  43.0026 280.4694 0000841 267.1550  92.9206 15.27584880108367
STARLINK-31195          
1 58796U 24012K   25349.81621364  .00000146  00000+0  14818-4 0  9994
2 58796  43.0027 279.3482 0001374 289.6078  70.4625 15.27574223108408
STARLINK-31193          
1 58797U 24012L   25349.18920461 -.00003831  00000+0 -12980-3 0  9998
2 58797  43.0012 282.3827 0000973 292.9311  67.1438 15.27573232108315
STARLINK-31168          
1 58798U 24012M   25349.51997573  .00000949  00000+0  43987-4 0  9991
2 58798  43.0053 280.5640 0000484 284.6005  75.4793 15.27576821108367
STARLINK-31191          
1 58800U 24012P   25349.23916266  .00007436  00000+0  27950-3 0  9993
2 58800  42.9999 281.8964 0001245 272.7411  87.3298 15.27576536108327
