[{"OBJECT_NAME":"STARLINK-31047","OBJECT_ID":"2024-011U","EPOCH":"2025-12-15T19:57:24.304320","MEAN_MOTION":15.30192728,"ECCENTRICITY":0.00013483,"INCLINATION":53.1613,"RA_OF_ASC_NODE":27.6426,"ARG_OF_PERICENTER":104.6515,"MEAN_ANOMALY":255.4635,"EPHEMERIS_TYPE":0,"CLASSIFICATION_TYPE":"U","NORAD_CAT_ID":58783,"ELEMENT_SET_NO":999,"REV_AT_EPOCH":10765,"BSTAR":5.4401897e-5,"MEAN_MOTION_DOT":1.252e-5,"MEAN_MOTION_DDOT":0},{"OBJECT_NAME":"STARLINK-31039","OBJECT_ID":"2024-011V","EPOCH":"2025-12-15T20:32:29.347008","MEAN_MOTION":15.30202145,"ECCENTRICITY":0.00010845,"INCLINATION":53.1608,"RA_OF_ASC_NODE":43.1607,"ARG_OF_PERICENTER":91.6296,"MEAN_ANOMALY":268.4829,"EPHEMERIS_TYPE":0,"CLASSIFICATION_TYPE":"U","NORAD_CAT_ID":58784,"ELEMENT_SET_NO":999,"REV_AT_EPOCH":10743,"BSTAR":7.0124888e-5,"MEAN_MOTION_DOT":1.718e-5,"MEAN_MOTION_DDOT":0},{"OBJECT_NAME":"STARLINK-31034","OBJECT_ID":"2024-011W","EPOCH":"2025-12-15T13:59:15.238464","MEAN_MOTION":15.3020678,"ECCENTRICITY":0.00012311,"INCLINATION":53.1627,"RA_OF_ASC_NODE":301.9777,"ARG_OF_PERICENTER":98.4562,"MEAN_ANOMALY":261.6578,"EPHEMERIS_TYPE":0,"CLASSIFICATION_TYPE":"U","NORAD_CAT_ID":58785,"ELEMENT_SET_NO":999,"REV_AT_EPOCH":10885,"BSTAR":-6.5512822e-5,"MEAN_MOTION_DOT":-2.299e-5,"MEAN_MOTION_DDOT":0},{"OBJECT_NAME":"STARLINK-31024","OBJECT_ID":"2024-011X","EPOCH":"2025-12-15T20:39:20.294784","MEAN_MOTION":15.30194211,"ECCENTRICITY":0.00013098,"INCLINATION":53.1623,"RA_OF_ASC_NODE":41.0818,"ARG_OF_PERICENTER":98.9387,"MEAN_ANOMALY":261.1762,"EPHEMERIS_TYPE":0,"CLASSIFICATION_TYPE":"U","NORAD_CAT_ID":58786,"ELEMENT_SET_NO":999,"REV_AT_EPOCH":10746,"BSTAR":2.9658119e-5,"MEAN_MOTION_DOT":5.19e-6,"MEAN_MOTION_DDOT":0},{"OBJECT_NAME":"STARLINK-31189","OBJECT_ID":"2024-012A","EPOCH":"2025-12-15T05:35:08.675520","MEAN_MOTION":15.27579263,"ECCENTRICITY":0.00010222,"INCLINATION":43.0014,"RA_OF_ASC_NODE":281.8576,"ARG_OF_PERICENTER":246.6939,"MEAN_ANOMALY":113.3805,"EPHEMERIS_TYPE":0,"CLASSIFICATION_TYPE":"U","NORAD_CAT_ID":58787,"ELEMENT_SET_NO":999,"REV_AT_EPOCH":10832,"BSTAR":-8.0269712e-5,"MEAN_MOTION_DOT":-2.47e-5,"MEAN_MOTION_DDOT":0},{"OBJECT_NAME":"STARLINK-31185","OBJECT_ID":"2024-012B","EPOCH":"2025-12-15T21:03:57.412512","MEAN_MOTION":15.27580651,"ECCENTRICITY":0.00010846,"INCLINATION":43.001,"RA_OF_ASC_NODE":278.95,"ARG_OF_PERICENTER":285.8928,"MEAN_ANOMALY":74.1804,"EPHEMERIS_TYPE":0,"CLASSIFICATION_TYPE":"U","NORAD_CAT_ID":58788,"ELEMENT_SET_NO":999,"REV_AT_EPOCH":10841,"BSTAR":2.5846671e-5,"MEAN_MOTION_DOT":4.49e-6,"MEAN_MOTION_DDOT":0},{"OBJECT_NAME":"STARLINK-31166","OBJECT_ID":"2024-012C","EPOCH":"2025-12-15T12:15:48.828384","MEAN_MOTION":15.27584319,"ECCENTRICITY":9.415e-5,"INCLINATION":43.0007,"RA_OF_ASC_NODE":280.4951,"ARG_OF_PERICENTER":267.9577,"MEAN_ANOMALY":92.1167,"EPHEMERIS_TYPE":0,"CLASSIFICATION_TYPE":"U","NORAD_CAT_ID":58789,"ELEMENT_SET_NO":999,"REV_AT_EPOCH":10836,"BSTAR":-2.1954141e-5,"MEAN_MOTION_DOT":-8.66e-6,"MEAN_MOTION_DDOT":0},{"OBJECT_NAME":"STARLINK-31187","OBJECT_ID":"2024-012D","EPOCH":"2025-12-15T21:02:06.998496","MEAN_MOTION":15.27578685,"ECCENTRICITY":0.00013449,"INCLINATION":43.0025,"RA_OF_ASC_NODE":278.9416,"ARG_OF_PERICENTER":288.0217,"MEAN_ANOMALY":72.0488,"EPHEMERIS_TYPE":0,"CLASSIFICATION_TYPE":"U","NORAD_CAT_ID":58790,"ELEMENT_SET_NO":999,"REV_AT_EPOCH":10841,"BSTAR":0.0002207452,"MEAN_MOTION_DOT":5.817e-5,"MEAN_MOTION_DDOT":0},{"OBJECT_NAME":"STARLINK-31162","OBJECT_ID":"2024-012E","EPOCH":"2025-12-15T05:57:20.675808","MEAN_MOTION":15.27583458,"ECCENTRICITY":0.00013363,"INCLINATION":43.0015,"RA_OF_ASC_NODE":281.9725,"ARG_OF_PERICENTER":258.8968,"MEAN_ANOMALY":101.1733,"EPHEMERIS_TYPE":0,"CLASSIFICATION_TYPE":"U","NORAD_CAT_ID":58791,"ELEMENT_SET_NO":999,"REV_AT_EPOCH":10832,"BSTAR":-5.4965867e-5,"MEAN_MOTION_DOT":-1.774e-5,"MEAN_MOTION_DDOT":0},{"OBJECT_NAME":"STARLINK-31184","OBJECT_ID":"2024-012G","EPOCH":"2025-12-15T05:49:56.554752","MEAN_MOTION":15.27581124,"ECCENTRICITY":0.00010543,"INCLINATION":43.0014,"RA_OF_ASC_NODE":281.9275,"ARG_OF_PERICENTER":261.0797,"MEAN_ANOMALY":98.9936,"EPHEMERIS_TYPE":0,"CLASSIFICATION_TYPE":"U","NORAD_CAT_ID":58793,"ELEMENT_SET_NO":999,"REV_AT_EPOCH":10832,"BSTAR":-9.2740976e-5,"MEAN_MOTION_DOT":-2.813e-5,"MEAN_MOTION_DDOT":0},{"OBJECT_NAME":"STARLINK-31192","OBJECT_ID":"2024-012H","EPOCH":"2025-12-15T20:58:24.719808","MEAN_MOTION":15.27537498,"ECCENTRICITY":7.239e-5,"INCLINATION":43.0016,"RA_OF_ASC_NODE":278.9194,"ARG_OF_PERICENTER":264.7499,"MEAN_ANOMALY":95.327,"EPHEMERIS_TYPE":0,"CLASSIFICATION_TYPE":"U","NORAD_CAT_ID":58794,"ELEMENT_SET_NO":999,"REV_AT_EPOCH":10841,"BSTAR":0.00037798289,"MEAN_MOTION_DOT":0.0001014,"MEAN_MOTION_DDOT":0},{"OBJECT_NAME":"STARLINK-31161","OBJECT_ID":"2024-012J","EPOCH":"2025-12-15T12:10:15.718368","MEAN_MOTION":15.2758488,"ECCENTRICITY":8.416e-5,"INCLINATION":43.0026,"RA_OF_ASC_NODE":280.4694,"ARG_OF_PERICENTER":267.155,"MEAN_ANOMALY":92.9206,"EPHEMERIS_TYPE":0,"CLASSIFICATION_TYPE":"U","NORAD_CAT_ID":58795,"ELEMENT_SET_NO":999,"REV_AT_EPOCH":10836,"BSTAR":-4.8594493e-5,"MEAN_MOTION_DOT":-1.599e-5,"MEAN_MOTION_DDOT":0},{"OBJECT_NAME":"STARLINK-31195","OBJECT_ID":"2024-012K","EPOCH":"2025-12-15T19:35:20.858496","MEAN_MOTION":15.27574223,"ECCENTRICITY":0.00013746,"INCLINATION":43.0027,"RA_OF_ASC_NODE":279.3482,"ARG_OF_PERICENTER":289.6078,"MEAN_ANOMALY":70.4625,"EPHEMERIS_TYPE":0,"CLASSIFICATION_TYPE":"U","NORAD_CAT_ID":58796,"ELEMENT_SET_NO":999,"REV_AT_EPOCH":10840,"BSTAR":1.4818298e-5,"MEAN_MOTION_DOT":1.46e-6,"MEAN_MOTION_DDOT":0},{"OBJECT_NAME":"STARLINK-31193","OBJECT_ID":"2024-012L","EPOCH":"2025-12-15T04:32:27.278304","MEAN_MOTION":15.27573232,"ECCENTRICITY":9.733e-5,"INCLINATION":43.0012,"RA_OF_ASC_NODE":282.3827,"ARG_OF_PERICENTER":292.9311,"MEAN_ANOMALY":67.1438,"EPHEMERIS_TYPE":0,"CLASSIFICATION_TYPE":"U","NORAD_CAT_ID":58797,"ELEMENT_SET_NO":999,"REV_AT_EPOCH":10831,"BSTAR":-0.00012980436,"MEAN_MOTION_DOT":-3.831e-5,"MEAN_MOTION_DDOT":0},{"OBJECT_NAME":"STARLINK-31168","OBJECT_ID":"2024-012M","EPOCH":"2025-12-15T12:28:45.903072","MEAN_MOTION":15.27576821,"ECCENTRICITY":4.845e-5,"INCLINATION":43.0053,"RA_OF_ASC_NODE":280.564,"ARG_OF_PERICENTER":284.6005,"MEAN_ANOMALY":75.4793,"EPHEMERIS_TYPE":0,"CLASSIFICATION_TYPE":"U","NORAD_CAT_ID":58798,"ELEMENT_SET_NO":999,"REV_AT_EPOCH":10836,"BSTAR":4.3986721e-5,"MEAN_MOTION_DOT":9.49e-6,"MEAN_MOTION_DDOT":0},{"OBJECT_NAME":"STARLINK-31191","OBJECT_ID":"2024-012P","EPOCH":"2025-12-15T05:44:23.653824","MEAN_MOTION":15.27576536,"ECCENTRICITY":0.00012451,"INCLINATION":42.9999,"RA_OF_ASC_NODE":281.8964,"ARG_OF_PERICENTER":272.7411,"MEAN_ANOMALY":87.3298,"EPHEMERIS_TYPE":0,"CLASSIFICATION_TYPE":"U","NORAD_CAT_ID":58800,"ELEMENT_SET_NO":999,"REV_AT_EPOCH":10832,"BSTAR":0.00027949798,"MEAN_MOTION_DOT":7.436e-5,"MEAN_MOTION_DDOT":0}]
